{
  "type": "FeatureCollection",
  "features": [
    {
      "type": "Feature",
      "properties": {
        "norad_id": 31991,
        "name": "FENGYUN 1C DEB",
        "group": "fengyun-1c-debris",
        "lat": 18.629838068930773,
        "lon": -10.355119562737935,
        "alt_km": 1012.4257237912307,
        "timestamp": "2025-12-03T17:47:51.002660+00:00",
        "meta_object_name": "FENGYUN 1C DEB",
        "meta_object_id": "1999-025CPU",
        "meta_epoch": "2025-12-03T06:27:10.152000",
        "meta_mean_motion": 13.6127431,
        "meta_eccentricity": 0.0244591,
        "meta_inclination": 100.4871,
        "meta_ra_of_asc_node": 165.5577,
        "meta_arg_of_pericenter": 76.633,
        "meta_mean_anomaly": 286.1951,
        "meta_ephemeris_type": 0,
        "meta_classification_type": "U",
        "meta_norad_cat_id": 31991,
        "meta_element_set_no": 999,
        "meta_rev_at_epoch": 61958,
        "meta_bstar": 0.00020994,
        "meta_mean_motion_dot": 1.46e-06,
        "meta_mean_motion_ddot": 0,
        "tle_line1": "1 31991U 99025CPU 25337.26886750  .00000146  00000+0  20994-3 0  9997",
        "tle_line2": "2 31991 100.4871 165.5577 0244591  76.6330 286.1951 13.61274310619581"
      },
      "geometry": {
        "type": "Point",
        "coordinates": [
          -10.355119562737935,
          18.629838068930773
        ]
      }
    },
    {
      "type": "Feature",
      "properties": {
        "norad_id": 31992,
        "name": "FENGYUN 1C DEB",
        "group": "fengyun-1c-debris",
        "lat": -25.339351830418902,
        "lon": 114.28711351039344,
        "alt_km": 1543.3730329301388,
        "timestamp": "2025-12-03T17:47:51.002670+00:00",
        "meta_object_name": "FENGYUN 1C DEB",
        "meta_object_id": "1999-025CPV",
        "meta_epoch": "2025-11-28T04:18:18.013824",
        "meta_mean_motion": 13.22945767,
        "meta_eccentricity": 0.05423475,
        "meta_inclination": 99.1642,
        "meta_ra_of_asc_node": 293.7613,
        "meta_arg_of_pericenter": 64.8199,
        "meta_mean_anomaly": 300.815,
        "meta_ephemeris_type": 0,
        "meta_classification_type": "U",
        "meta_norad_cat_id": 31992,
        "meta_element_set_no": 999,
        "meta_rev_at_epoch": 53682,
        "meta_bstar": 0.0012217074,
        "meta_mean_motion_dot": 1.091e-05,
        "meta_mean_motion_ddot": 0,
        "tle_line1": "1 31992U 99025CPV 25332.17937516  .00001091  00000+0  12217-2 0  9998",
        "tle_line2": "2 31992  99.1642 293.7613 0542347  64.8199 300.8150 13.22945767536827"
      },
      "geometry": {
        "type": "Point",
        "coordinates": [
          114.28711351039344,
          -25.339351830418902
        ]
      }
    },
    {
      "type": "Feature",
      "properties": {
        "norad_id": 31993,
        "name": "FENGYUN 1C DEB",
        "group": "fengyun-1c-debris",
        "lat": 80.73567671559104,
        "lon": -135.61021496383185,
        "alt_km": 1018.9150953340477,
        "timestamp": "2025-12-03T17:47:51.002680+00:00",
        "meta_object_name": "FENGYUN 1C DEB",
        "meta_object_id": "1999-025CPW",
        "meta_epoch": "2025-12-02T16:00:35.638560",
        "meta_mean_motion": 13.27424554,
        "meta_eccentricity": 0.04213004,
        "meta_inclination": 99.2426,
        "meta_ra_of_asc_node": 309.9868,
        "meta_arg_of_pericenter": 160.0851,
        "meta_mean_anomaly": 201.7283,
        "meta_ephemeris_type": 0,
        "meta_classification_type": "U",
        "meta_norad_cat_id": 31993,
        "meta_element_set_no": 999,
        "meta_rev_at_epoch": 88809,
        "meta_bstar": 0.0013089628,
        "meta_mean_motion_dot": 9.17e-06,
        "meta_mean_motion_ddot": 0,
        "tle_line1": "1 31993U 99025CPW 25336.66707915  .00000917  00000+0  13090-2 0  9991",
        "tle_line2": "2 31993  99.2426 309.9868 0421300 160.0851 201.7283 13.27424554888096"
      },
      "geometry": {
        "type": "Point",
        "coordinates": [
          -135.61021496383185,
          80.73567671559104
        ]
      }
    },
    {
      "type": "Feature",
      "properties": {
        "norad_id": 31994,
        "name": "FENGYUN 1C DEB",
        "group": "fengyun-1c-debris",
        "lat": -62.434721822776865,
        "lon": 135.84605514571427,
        "alt_km": 878.6856056646966,
        "timestamp": "2025-12-03T17:47:51.002691+00:00",
        "meta_object_name": "FENGYUN 1C DEB",
        "meta_object_id": "1999-025CPX",
        "meta_epoch": "2025-11-30T19:49:26.043168",
        "meta_mean_motion": 13.95748964,
        "meta_eccentricity": 0.01617781,
        "meta_inclination": 98.5385,
        "meta_ra_of_asc_node": 329.8681,
        "meta_arg_of_pericenter": 179.159,
        "meta_mean_anomaly": 180.9876,
        "meta_ephemeris_type": 0,
        "meta_classification_type": "U",
        "meta_norad_cat_id": 31994,
        "meta_element_set_no": 999,
        "meta_rev_at_epoch": 56630,
        "meta_bstar": 4.9911834e-05,
        "meta_mean_motion_dot": 3.7e-07,
        "meta_mean_motion_ddot": 0,
        "tle_line1": "1 31994U 99025CPX 25334.82599587  .00000037  00000+0  49912-4 0  9999",
        "tle_line2": "2 31994  98.5385 329.8681 0161778 179.1590 180.9876 13.95748964566300"
      },
      "geometry": {
        "type": "Point",
        "coordinates": [
          135.84605514571427,
          -62.434721822776865
        ]
      }
    },
    {
      "type": "Feature",
      "properties": {
        "norad_id": 31997,
        "name": "FENGYUN 1C DEB",
        "group": "fengyun-1c-debris",
        "lat": -74.52881383850853,
        "lon": 145.40329473069687,
        "alt_km": 859.6723513559264,
        "timestamp": "2025-12-03T17:47:51.002701+00:00",
        "meta_object_name": "FENGYUN 1C DEB",
        "meta_object_id": "1999-025CQA",
        "meta_epoch": "2025-12-03T07:40:21.213408",
        "meta_mean_motion": 13.60611226,
        "meta_eccentricity": 0.0289142,
        "meta_inclination": 102.5115,
        "meta_ra_of_asc_node": 18.2067,
        "meta_arg_of_pericenter": 295.08,
        "meta_mean_anomaly": 62.0579,
        "meta_ephemeris_type": 0,
        "meta_classification_type": "U",
        "meta_norad_cat_id": 31997,
        "meta_element_set_no": 999,
        "meta_rev_at_epoch": 61555,
        "meta_bstar": 0.0027903,
        "meta_mean_motion_dot": 2.707e-05,
        "meta_mean_motion_ddot": 0,
        "tle_line1": "1 31997U 99025CQA 25337.31968997  .00002707  00000+0  27903-2 0  9994",
        "tle_line2": "2 31997 102.5115  18.2067 0289142 295.0800  62.0579 13.60611226615559"
      },
      "geometry": {
        "type": "Point",
        "coordinates": [
          145.40329473069687,
          -74.52881383850853
        ]
      }
    },
    {
      "type": "Feature",
      "properties": {
        "norad_id": 32086,
        "name": "FENGYUN 1C DEB",
        "group": "fengyun-1c-debris",
        "lat": -68.8369933182725,
        "lon": -171.96629522893824,
        "alt_km": 1012.6385140927587,
        "timestamp": "2025-12-03T17:47:51.002711+00:00",
        "meta_object_name": "FENGYUN 1C DEB",
        "meta_object_id": "1999-025CQC",
        "meta_epoch": "2025-11-29T21:22:24.381408",
        "meta_mean_motion": 13.68796405,
        "meta_eccentricity": 0.03015011,
        "meta_inclination": 99.2704,
        "meta_ra_of_asc_node": 29.2799,
        "meta_arg_of_pericenter": 168.7326,
        "meta_mean_anomaly": 192.0773,
        "meta_ephemeris_type": 0,
        "meta_classification_type": "U",
        "meta_norad_cat_id": 32086,
        "meta_element_set_no": 999,
        "meta_rev_at_epoch": 61605,
        "meta_bstar": 0.0024766711,
        "meta_mean_motion_dot": 2.889e-05,
        "meta_mean_motion_ddot": 0,
        "tle_line1": "1 32086U 99025CQC 25333.89055997  .00002889  00000+0  24767-2 0  9996",
        "tle_line2": "2 32086  99.2704  29.2799 0301501 168.7326 192.0773 13.68796405616059"
      },
      "geometry": {
        "type": "Point",
        "coordinates": [
          -171.96629522893824,
          -68.8369933182725
        ]
      }
    },
    {
      "type": "Feature",
      "properties": {
        "norad_id": 32088,
        "name": "FENGYUN 1C DEB",
        "group": "fengyun-1c-debris",
        "lat": -20.593294541198862,
        "lon": -153.27104625919122,
        "alt_km": 887.5081760535095,
        "timestamp": "2025-12-03T17:47:51.002722+00:00",
        "meta_object_name": "FENGYUN 1C DEB",
        "meta_object_id": "1999-025CQE",
        "meta_epoch": "2025-12-03T08:50:08.706048",
        "meta_mean_motion": 13.25117787,
        "meta_eccentricity": 0.0461007,
        "meta_inclination": 102.4015,
        "meta_ra_of_asc_node": 201.5414,
        "meta_arg_of_pericenter": 17.0151,
        "meta_mean_anomaly": 344.5857,
        "meta_ephemeris_type": 0,
        "meta_classification_type": "U",
        "meta_norad_cat_id": 32088,
        "meta_element_set_no": 999,
        "meta_rev_at_epoch": 59720,
        "meta_bstar": 0.0053156,
        "meta_mean_motion_dot": 4.028e-05,
        "meta_mean_motion_ddot": 0,
        "tle_line1": "1 32088U 99025CQE 25337.36815632  .00004028  00000+0  53156-2 0  9995",
        "tle_line2": "2 32088 102.4015 201.5414 0461007  17.0151 344.5857 13.25117787597207"
      },
      "geometry": {
        "type": "Point",
        "coordinates": [
          -153.27104625919122,
          -20.593294541198862
        ]
      }
    }
  ]
}